IRIDIUM 159             
1 43578U 18061K   25318.80757387  .00000068  00000+0  17225-4 0  9991
2 43578  86.3965 146.3371 0002209  87.4236 272.7213 14.34217966382655
IRIDIUM 180             
1 43922U 19002A   25318.80706697  .00000291  00000+0  96883-4 0  9993
2 43922  86.3950  83.2181 0002074  90.2699 269.8735 14.34220275358268
IRIDIUM 176             
1 43923U 19002B   25318.85683679  .00002304  00000+0  36154-3 0  9994
2 43923  86.6072  83.1717 0001854  91.3170 268.8259 14.72240882367710
IRIDIUM 168             
1 43924U 19002C   25318.59141913  .00000328  00000+0  11001-3 0  9994
2 43924  86.3954  83.3797 0001993  92.1047 268.0377 14.34220291358211
IRIDIUM 173             
1 43925U 19002D   25318.85780477  .00000024  00000+0  16715-5 0  9990
2 43925  86.3950  83.1658 0001919  88.6405 271.5010 14.34221908358239
IRIDIUM 169             
1 43926U 19002E   25318.67268429  .00000299  00000+0  91225-4 0  9991
2 43926  86.4195 114.8934 0001256  71.1527 288.9808 14.38605408359386
IRIDIUM 172             
1 43927U 19002F   25318.85146547  .00000310  00000+0  10357-3 0  9998
2 43927  86.3950  83.1757 0002243  90.0099 270.1354 14.34220203358242
IRIDIUM 175             
1 43928U 19002G   25318.44420389  .00002209  00000+0  34634-3 0  9996
2 43928  86.1538  27.3458 0002305 112.4341 247.7120 14.72251313367642
